{
    "links": {
        "self": "http://www.neowsapp.com/rest/v1/neo/3781230?api_key=iIulBulltgU6a56xZRHN4H3l9WmuAYTsLGpBGhQ2"
    },
    "id": "3781230",
    "neo_reference_id": "3781230",
    "name": "(2017 QT32)",
    "designation": "2017 QT32",
    "nasa_jpl_url": "http://ssd.jpl.nasa.gov/sbdb.cgi?sstr=3781230",
    "absolute_magnitude_h": 26.1,
    "estimated_diameter": {
        "kilometers": {
            "estimated_diameter_min": 0.0160160338,
            "estimated_diameter_max": 0.0358129403
        },
        "meters": {
            "estimated_diameter_min": 16.0160337979,
            "estimated_diameter_max": 35.8129403019
        },
        "miles": {
            "estimated_diameter_min": 0.0099518989,
            "estimated_diameter_max": 0.0222531225
        },
        "feet": {
            "estimated_diameter_min": 52.5460443254,
            "estimated_diameter_max": 117.4965270602
        }
    },
    "is_potentially_hazardous_asteroid": false,
    "close_approach_data": [
        {
            "close_approach_date": "1972-05-26",
            "close_approach_date_full": "1972-May-26 07:01",
            "epoch_date_close_approach": 75711660000,
            "relative_velocity": {
                "kilometers_per_second": "15.7198796239",
                "kilometers_per_hour": "56591.5666460918",
                "miles_per_hour": "35163.7987307341"
            },
            "miss_distance": {
                "astronomical": "0.2543161366",
                "lunar": "98.9289771374",
                "kilometers": "38045152.341989042",
                "miles": "23640161.4564590996"
            },
            "orbiting_body": "Earth"
        },
        {
            "close_approach_date": "2017-08-19",
            "close_approach_date_full": "2017-Aug-19 23:57",
            "epoch_date_close_approach": 1503187020000,
            "relative_velocity": {
                "kilometers_per_second": "10.3436836282",
                "kilometers_per_hour": "37237.2610614221",
                "miles_per_hour": "23137.7859078597"
            },
            "miss_distance": {
                "astronomical": "0.0313557613",
                "lunar": "12.1973911457",
                "kilometers": "4690755.102708431",
                "miles": "2914700.0643851078"
            },
            "orbiting_body": "Earth"
        }
    ],
    "orbital_data": {
        "orbit_id": "2",
        "orbit_determination_date": "2019-07-10 05:35:58",
        "first_observation_date": "2017-08-23",
        "last_observation_date": "2017-08-29",
        "data_arc_in_days": 6,
        "observations_used": 26,
        "orbit_uncertainty": "8",
        "minimum_orbit_intersection": ".0260628",
        "jupiter_tisserand_invariant": "3.456",
        "epoch_osculation": "2457991.5",
        "eccentricity": ".549337920534242",
        "semi_major_axis": "2.185815317451823",
        "inclination": "6.90979343279952",
        "ascending_node_longitude": "154.2486853020245",
        "orbital_period": "1180.371253939208",
        "perihelion_distance": ".9850640762909445",
        "perihelion_argument": "142.0478557836288",
        "aphelion_distance": "3.386566558612702",
        "perihelion_time": "2457961.004022944293",
        "mean_anomaly": "9.300931129435943",
        "mean_motion": ".304988789585129",
        "equinox": "J2000",
        "orbit_class": {
            "orbit_class_type": "APO",
            "orbit_class_description": "Near-Earth asteroid orbits which cross the Earth’s orbit similar to that of 1862 Apollo",
            "orbit_class_range": "a (semi-major axis) > 1.0 AU; q (perihelion) < 1.017 AU"
        }
    },
    "is_sentry_object": false
}